SatCatId,ObjectName,LaunchYear,OrbitalPeriod,LaunchMass,StatusCode,Inclination,Status,UcsData,OrbitClassEstimated,LaunchSiteCountry,Owner,UseType,Purpose,LaunchVehicleClass,TLE1,TLE2,MeanMotion,Eccentricity,OrbitClass
7827,COSMOS 738,1975,115.73,-1.0,UNK,74.02,Inactive,0,LEO,Russia,Russia/USSR,Unknown,Unknown,Unknown,1 07827U 75045G   24219.56118174 -.00000019  00000+0 -24756-4 0  9995,2 07827  74.0184  25.4706 0025430 201.7664 230.0158 12.44226294234479,12.44226294,0.002543,LEO
7828,COSMOS 739,1975,114.82,-1.0,UNK,74.02,Inactive,0,LEO,Russia,Russia/USSR,Unknown,Unknown,Unknown,1 07828U 75045H   24219.58064436  .00000017  00000+0  20873-3 0  9990,2 07828  74.0192 302.3730 0031748 281.1987 186.7231 12.54189569252374,12.54189569,0.0031748,LEO
7828,COSMOS 739,1975,114.82,-1.0,UNK,74.02,Inactive,0,LEO,Russia,Russia/USSR,Unknown,Unknown,Unknown,1 07828U 75045H   24219.58064436  .00000017  00000+0  20873-3 0  9990,2 07828  74.0192 302.3730 0031748 281.1987 186.7231 12.54189569252374,12.54189569,0.0031748,LEO
24208,ITALSAT 2,1996,1428.78,-1.0,UNK,13.45,Inactive,0,GSO,French Guiana,Italy,Unknown,Unknown,Unknown,1 24208U 96044A   24219.65437296 -.00000359  00000+0  00000+0 0  9995,2 24208  13.4465  11.7742 0028389 133.6579 160.6483  1.00784922102742,1.00784922,0.0028389,GSO
24208,ITALSAT 2,1996,1428.78,-1.0,UNK,13.45,Inactive,0,GSO,French Guiana,Italy,Unknown,Unknown,Unknown,1 24208U 96044A   24219.65437296 -.00000359  00000+0  00000+0 0  9995,2 24208  13.4465  11.7742 0028389 133.6579 160.6483  1.00784922102742,1.00784922,0.0028389,GSO
24209,TELECOM 2D,1996,1462.72,-1.0,-,12.15,Inactive,0,GSO,French Guiana,France,Unknown,Unknown,Unknown,1 24209U 96044B   24219.02688407 -.00000055  00000+0  00000+0 0  9992,2 24209  12.1522  29.2129 0014384  20.6512 191.7531  0.98446527101850,0.98446527,0.0014384,GSO
24209,TELECOM 2D,1996,1462.72,-1.0,-,12.15,Inactive,0,GSO,French Guiana,France,Unknown,Unknown,Unknown,1 24209U 96044B   24219.02688407 -.00000055  00000+0  00000+0 0  9992,2 24209  12.1522  29.2129 0014384  20.6512 191.7531  0.98446527101850,0.98446527,0.0014384,GSO
16064,COSMOS 1684,1985,718.51,-1.0,UNK,67.28,Inactive,0,MEO,Russia,Russia/USSR,Unknown,Unknown,Molniya,1 16064U 85084A   24219.06380008 -.00000563  00000+0  00000+0 0  9998,2 16064  67.2750 116.2595 5036805 110.8782 308.7812  2.00413620284684,2.0041362,0.5036805,MEO
16064,COSMOS 1684,1985,718.51,-1.0,UNK,67.28,Inactive,0,MEO,Russia,Russia/USSR,Unknown,Unknown,Molniya,1 16064U 85084A   24219.06380008 -.00000563  00000+0  00000+0 0  9998,2 16064  67.2750 116.2595 5036805 110.8782 308.7812  2.00413620284684,2.0041362,0.5036805,MEO
48841,OBJECT B,2021,89.98,42.0,UNK,97.4,Inactive,1,LEO,PRC,China,Commercial,Space Science,Long March,1 48841U 21050B   24219.57514634  .00599775  16388-3  11367-2 0  9997,2 48841  97.4021 320.3645 0007203 241.2611 118.7944 16.00713938176985,16.00713938,0.0007203,LEO
48841,OBJECT B,2021,89.98,42.0,UNK,97.4,Inactive,1,LEO,PRC,China,Commercial,Space Science,Long March,1 48841U 21050B   24219.57514634  .00599775  16388-3  11367-2 0  9997,2 48841  97.4021 320.3645 0007203 241.2611 118.7944 16.00713938176985,16.00713938,0.0007203,LEO
48843,OBJECT D,2021,94.49,-1.0,UNK,97.4,Inactive,0,LEO,PRC,China,Unknown,Unknown,Unknown,1 48843U 21050D   24219.58819952  .00012490  00000+0  51741-3 0  9996,2 48843  97.4006 296.9884 0013513 126.2487 234.0002 15.23967518175487,15.23967518,0.0013513,LEO
48843,OBJECT D,2021,94.49,-1.0,UNK,97.4,Inactive,0,LEO,PRC,China,Unknown,Unknown,Unknown,1 48843U 21050D   24219.58819952  .00012490  00000+0  51741-3 0  9996,2 48843  97.4006 296.9884 0013513 126.2487 234.0002 15.23967518175487,15.23967518,0.0013513,LEO
24277,MIDORI (ADEOS),1996,100.7,-1.0,-,98.9,Inactive,0,LEO,Japan,Japan,Unknown,Unknown,Unknown,1 24277U 96046A   24219.59138338  .00000313  00000+0  13955-3 0  9997,2 24277  98.8953 251.5685 0000459 356.8488   3.2691 14.29971577458525,14.29971577,4.59e-05,LEO
24277,MIDORI (ADEOS),1996,100.7,-1.0,-,98.9,Inactive,0,LEO,Japan,Japan,Unknown,Unknown,Unknown,1 24277U 96046A   24219.59138338  .00000313  00000+0  13955-3 0  9997,2 24277  98.8953 251.5685 0000459 356.8488   3.2691 14.29971577458525,14.29971577,4.59e-05,LEO
24282,ZHONGXING-7,1996,1350.1,-1.0,-,17.3,Inactive,0,MEO,PRC,China,Unknown,Unknown,Unknown,1 24282U 96048A   24219.49470194 -.00000095  00000+0  00000+0 0  9994,2 24282  17.3041 207.2325 3462794 238.3134 322.8219  1.06659013111467,1.06659013,0.3462794,MEO
24282,ZHONGXING-7,1996,1350.1,-1.0,-,17.3,Inactive,0,MEO,PRC,China,Unknown,Unknown,Unknown,1 24282U 96048A   24219.49470194 -.00000095  00000+0  00000+0 0  9994,2 24282  17.3041 207.2325 3462794 238.3134 322.8219  1.06659013111467,1.06659013,0.3462794,MEO
24285,FAST,1996,122.95,-1.0,-,82.95,Inactive,0,LEO,USA,USA,Unknown,Unknown,Unknown,1 24285U 96049A   24219.58211146  .00010976  00000+0  85608-3 0  9997,2 24285  82.9484  55.6653 1790263  76.1459 303.1520 11.71254361152652,11.71254361,0.1790263,LEO
24285,FAST,1996,122.95,-1.0,-,82.95,Inactive,0,LEO,USA,USA,Unknown,Unknown,Unknown,1 24285U 96049A   24219.58211146  .00010976  00000+0  85608-3 0  9997,2 24285  82.9484  55.6653 1790263  76.1459 303.1520 11.71254361152652,11.71254361,0.1790263,LEO
32478,EXPRESS-AM33,2008,1434.95,2600.0,-,3.05,Inactive,1,GSO,Kazakhstan,Russia/USSR,Commercial,Communications,Proton,1 32478U 08003A   24219.65369704 -.00000367  00000+0  00000+0 0  9998,2 32478   3.0518  83.7339 0007617 136.1716  90.4516  1.00351622 46928,1.00351622,0.0007617,GSO
32478,EXPRESS-AM33,2008,1434.95,2600.0,-,3.05,Inactive,1,GSO,Kazakhstan,Russia/USSR,Commercial,Communications,Proton,1 32478U 08003A   24219.65369704 -.00000367  00000+0  00000+0 0  9998,2 32478   3.0518  83.7339 0007617 136.1716  90.4516  1.00351622 46928,1.00351622,0.0007617,GSO
24292,MAGION 5,1996,347.23,-1.0,UNK,62.81,Inactive,0,MEO,Russia,Czech Republic,Unknown,Unknown,Unknown,1 24292U 96050B   24217.81853371 -.00000009  00000+0  52129-3 0  9992,2 24292  62.8079  52.2390 5625644 256.8810  37.6854  4.14714261422962,4.14714261,0.5625644,MEO
24292,MAGION 5,1996,347.23,-1.0,UNK,62.81,Inactive,0,MEO,Russia,Czech Republic,Unknown,Unknown,Unknown,1 24292U 96050B   24217.81853371 -.00000009  00000+0  52129-3 0  9992,2 24292  62.8079  52.2390 5625644 256.8810  37.6854  4.14714261422962,4.14714261,0.5625644,MEO
16101,INTELSAT 512,1985,1452.82,-1.0,-,14.53,Inactive,0,GSO,USA,INTELSAT,Unknown,Unknown,Unknown,1 16101U 85087A   24218.70040191 -.00000313  00000+0  00000+0 0  9992,2 16101  14.5254 348.7150 0006539 271.9379  91.7803  0.99117618123580,0.99117618,0.0006539,GSO
16101,INTELSAT 512,1985,1452.82,-1.0,-,14.53,Inactive,0,GSO,USA,INTELSAT,Unknown,Unknown,Unknown,1 16101U 85087A   24218.70040191 -.00000313  00000+0  00000+0 0  9992,2 16101  14.5254 348.7150 0006539 271.9379  91.7803  0.99117618123580,0.99117618,0.0006539,GSO
24293,INTERBALL AURORA,1996,347.22,-1.0,UNK,62.81,Inactive,0,MEO,Russia,Russia/USSR,Unknown,Unknown,Unknown,1 24293U 96050C   24218.86690940 -.00000045  00000+0  00000+0 0  9997,2 24293  62.8102  51.7803 5626366 257.0038  37.5896  4.14718870423102,4.1471887,0.5626366,MEO
16103,COSMOS 1687,1985,716.92,-1.0,UNK,70.84,Inactive,0,MEO,Russia,Russia/USSR,Unknown,Unknown,Molniya,1 16103U 85088A   24219.54691127 -.00000121  00000+0  00000+0 0  9996,2 16103  70.8381  42.0899 5731559 359.8632   5.2701  2.00859000284613,2.00859,0.5731559,MEO
24293,INTERBALL AURORA,1996,347.22,-1.0,UNK,62.81,Inactive,0,MEO,Russia,Russia/USSR,Unknown,Unknown,Unknown,1 24293U 96050C   24218.86690940 -.00000045  00000+0  00000+0 0  9997,2 24293  62.8102  51.7803 5626366 257.0038  37.5896  4.14718870423102,4.1471887,0.5626366,MEO
24297,COSMOS 2333,1996,101.87,-1.0,UNK,70.91,Inactive,0,LEO,Kazakhstan,Russia/USSR,Unknown,Unknown,Unknown,1 24297U 96051A   24219.55600555  .00000402  00000+0  23788-3 0  9990,2 24297  70.9055 326.0727 0025571 254.0451 105.7852 14.13592221440242,14.13592221,0.0025571,LEO
24297,COSMOS 2333,1996,101.87,-1.0,UNK,70.91,Inactive,0,LEO,Kazakhstan,Russia/USSR,Unknown,Unknown,Unknown,1 24297U 96051A   24219.55600555  .00000402  00000+0  23788-3 0  9990,2 24297  70.9055 326.0727 0025571 254.0451 105.7852 14.13592221440242,14.13592221,0.0025571,LEO
24304,COSMOS 2334,1996,104.83,-1.0,UNK,82.93,Inactive,0,LEO,Russia,Russia/USSR,Unknown,Unknown,Unknown,1 24304U 96052A   24219.52364175  .00000084  00000+0  73311-4 0  9996,2 24304  82.9316 223.7559 0029633 356.7627 114.6215 13.73710041399318,13.73710041,0.0029633,LEO
24304,COSMOS 2334,1996,104.83,-1.0,UNK,82.93,Inactive,0,LEO,Russia,Russia/USSR,Unknown,Unknown,Unknown,1 24304U 96052A   24219.52364175  .00000084  00000+0  73311-4 0  9996,2 24304  82.9316 223.7559 0029633 356.7627 114.6215 13.73710041399318,13.73710041,0.0029633,LEO
24305,UNAMSAT-2 (MO-30),1996,104.81,-1.0,-,82.93,Inactive,0,LEO,Russia,Mexico,Unknown,Unknown,Unknown,1 24305U 96052B   24219.46393015  .00000097  00000+0  87703-4 0  9999,2 24305  82.9340 223.2856 0029703 347.5697  12.4723 13.73968077399272,13.73968077,0.0029703,LEO
24305,UNAMSAT-2 (MO-30),1996,104.81,-1.0,-,82.93,Inactive,0,LEO,Russia,Mexico,Unknown,Unknown,Unknown,1 24305U 96052B   24219.46393015  .00000097  00000+0  87703-4 0  9999,2 24305  82.9340 223.2856 0029703 347.5697  12.4723 13.73968077399272,13.73968077,0.0029703,LEO
7924,NIMBUS 6,1975,107.4,-1.0,-,100.02,Inactive,0,LEO,USA,USA,Unknown,Unknown,Unknown,1 07924U 75052A   24219.50904352 -.00000008  00000+0  66572-4 0  9995,2 07924 100.0214 128.4500 0008635  66.7128 107.0846 13.40779268405040,13.40779268,0.0008635,LEO
7924,NIMBUS 6,1975,107.4,-1.0,-,100.02,Inactive,0,LEO,USA,USA,Unknown,Unknown,Unknown,1 07924U 75052A   24219.50904352 -.00000008  00000+0  66572-4 0  9995,2 07924 100.0214 128.4500 0008635  66.7128 107.0846 13.40779268405040,13.40779268,0.0008635,LEO
